[Satellite]
VERSION=1.1
NAME=SNUSat 2
NICKNAME=SNUSat 2
TLE1=1 43782U 18099AA  22335.81247602  .00002146  00000-0  18889-3 0  9996
TLE2=2 43782  97.6035  38.2292 0013733  63.1311 297.1313 14.97465780218079
STATUS=0
